NORAD_CAT_ID,OBJECT_NAME,OBJECT_TYPE,EPOCH,MEAN_MOTION,ECCENTRICITY,INCLINATION,RA_OF_ASC_NODE,ARG_OF_PERICENTER,MEAN_ANOMALY,BSTAR,MEAN_MOTION_DOT,MEAN_MOTION_DDOT,TLE_LINE0,TLE_LINE1,TLE_LINE2,SEMIMAJOR_AXIS,PERIOD,APOGEE,PERIGEE,DECAYED
52998.0,STARLINK-4254,PAYLOAD,2023-12-21 13:25:44,15.08832762,0.0001583,53.2175,126.3602,59.7259,300.389,6.0247e-05,6.71e-06,0.0,0 STARLINK-4254,1 52998U 22076N   23355.55954734  .00000671  00000-0  60247-4 0  9997,2 52998  53.2175 126.3602 0001583  59.7259 300.3890 15.08832762 80690,6917.903,95.438,540.863,538.672,0.0
52998.0,STARLINK-4254,PAYLOAD,2023-12-21 15:01:07,15.08834132,0.0001469,53.2169,126.0637,64.4131,295.7013,9.5365e-05,1.23e-05,0.0,0 STARLINK-4254,1 52998U 22076N   23355.62578540  .00001230  00000-0  95365-4 0  9993,2 52998  53.2169 126.0637 0001469  64.4131 295.7013 15.08834132 81174,6917.898,95.438,540.78,538.747,0.0
52998.0,STARLINK-4254,PAYLOAD,2023-12-22 14:51:54,15.08850011,0.0001476,53.2173,121.602,71.2386,288.8766,0.00015469,2.175e-05,0.0,0 STARLINK-4254,1 52998U 22076N   23356.61937701  .00002175  00000-0  15469-3 0  9996,2 52998  53.2173 121.6020 0001476  71.2386 288.8766 15.08850011 80858,6917.85,95.437,540.736,538.694,0.0
52998.0,STARLINK-4254,PAYLOAD,2023-12-23 11:31:55,15.08844526,0.000141,53.2167,117.7357,81.4081,278.7071,8.7371e-05,1.103e-05,0.0,0 STARLINK-4254,1 52998U 22076N   23357.48050196  .00001103  00000-0  87371-4 0  9998,2 52998  53.2167 117.7357 0001410  81.4081 278.7071 15.08844526 81451,6917.867,95.437,540.707,538.756,0.0
52998.0,STARLINK-4254,PAYLOAD,2023-12-23 14:42:41,15.08846514,0.0001443,53.2166,117.1411,78.7728,281.3426,0.00012009,1.624e-05,0.0,0 STARLINK-4254,1 52998U 22076N   23357.61298107  .00001624  00000-0  12009-3 0  9992,2 52998  53.2166 117.1411 0001443  78.7728 281.3426 15.08846514 81002,6917.86,95.437,540.724,538.727,0.0
52998.0,STARLINK-4254,PAYLOAD,2023-12-24 12:58:05,15.08854438,0.0001345,53.2167,112.9825,89.5031,270.6115,-0.00017628,-3.093e-05,0.0,0 STARLINK-4254,1 52998U 22076N   23358.54033590 -.00003093  00000-0 -17628-3 0  9994,2 52998  53.2167 112.9825 0001345  89.5031 270.6115 15.08854438 81148,6917.836,95.437,540.632,538.771,0.0
52998.0,STARLINK-4254,PAYLOAD,2023-12-25 11:13:29,15.0884379,0.0001394,53.2168,108.8168,61.4406,298.6726,0.00010772,1.427e-05,0.0,0 STARLINK-4254,1 52998U 22076N   23359.46770015  .00001427  00000-0  10772-3 0  9996,2 52998  53.2168 108.8168 0001394  61.4406 298.6726 15.08843790 81756,6917.869,95.437,540.698,538.769,0.0
52998.0,STARLINK-4254,PAYLOAD,2023-12-25 12:48:52,15.088452,0.0001425,53.2164,108.5191,69.6109,290.5036,0.00012492,1.701e-05,0.0,0 STARLINK-4254,1 52998U 22076N   23359.53393933  .00001701  00000-0  12492-3 0  9990,2 52998  53.2164 108.5191 0001425  69.6109 290.5036 15.08845200 81292,6917.864,95.437,540.715,538.744,0.0
52998.0,STARLINK-4254,PAYLOAD,2023-12-26 11:04:17,15.08834177,0.0001281,53.2171,104.3575,72.7694,287.3438,9.0792e-06,-1.43e-06,0.0,0 STARLINK-4254,1 52998U 22076N   23360.46131015 -.00000143  00000-0  90792-5 0  9996,2 52998  53.2171 104.3575 0001281  72.7694 287.3438 15.08834177 81903,6917.898,95.438,540.649,538.877,0.0
52998.0,STARLINK-4254,PAYLOAD,2023-12-26 12:39:40,15.08835648,0.0001303,53.2164,104.0592,90.9395,269.1747,2.5606e-05,1.2e-06,0.0,0 STARLINK-4254,1 52998U 22076N   23360.52754799  .00000120  00000-0  25606-4 0  9998,2 52998  53.2164 104.0592 0001303  90.9395 269.1747 15.08835648 81440,6917.894,95.438,540.66,538.857,0.0
52998.0,STARLINK-4254,PAYLOAD,2023-12-27 12:30:27,15.08841009,0.0001307,53.2165,99.5994,79.6798,280.4342,7.6846e-05,9.35e-06,0.0,0 STARLINK-4254,1 52998U 22076N   23361.52114650  .00000935  00000-0  76846-4 0  9991,2 52998  53.2165  99.5994 0001307  79.6798 280.4342 15.08841009 81591,6917.877,95.437,540.646,538.838,0.0
52998.0,STARLINK-4254,PAYLOAD,2023-12-27 15:41:12,15.0884745,0.0001389,53.217,99.0033,79.6951,280.4197,0.00010002,1.305e-05,0.0,0 STARLINK-4254,1 52998U 22076N   23361.65362197  .00001305  00000-0  10002-3 0  9999,2 52998  53.2170  99.0033 0001389  79.6951 280.4197 15.08847450 82086,6917.858,95.437,540.684,538.762,0.0
52998.0,STARLINK-4254,PAYLOAD,2023-12-28 12:21:14,15.08838803,0.0001388,53.2167,95.1383,83.5873,276.5277,0.00012372,1.682e-05,0.0,0 STARLINK-4254,1 52998U 22076N   23362.51474873  .00001682  00000-0  12372-3 0  9990,2 52998  53.2167  95.1383 0001388  83.5873 276.5277 15.08838803 82215,6917.884,95.438,540.709,538.789,0.0
52998.0,STARLINK-4254,PAYLOAD,2023-12-28 13:56:37,15.08842429,0.0001387,53.2171,94.841,80.1995,279.9153,0.00014792,2.067e-05,0.0,0 STARLINK-4254,1 52998U 22076N   23362.58098619  .00002067  00000-0  14792-3 0  9993,2 52998  53.2171  94.8410 0001387  80.1995 279.9153 15.08842429 81751,6917.873,95.437,540.697,538.778,0.0
52998.0,STARLINK-4254,PAYLOAD,2023-12-29 13:47:24,15.08843086,0.0001418,53.2175,90.3802,74.6616,285.4533,5.1175e-05,5.27e-06,0.0,0 STARLINK-4254,1 52998U 22076N   23363.57458921  .00000527  00000-0  51175-4 0  9995,2 52998  53.2175  90.3802 0001418  74.6616 285.4533 15.08843086 81905,6917.871,95.437,540.717,538.755,0.0
52998.0,STARLINK-4254,PAYLOAD,2023-12-30 12:02:48,15.08847726,0.000141,53.217,86.2168,82.206,277.9092,8.8628e-05,1.123e-05,0.0,0 STARLINK-4254,1 52998U 22076N   23364.50194485  .00001123  00000-0  88628-4 0  9997,2 52998  53.2170  86.2168 0001410  82.2060 277.9092 15.08847726 82046,6917.857,95.437,540.697,538.746,0.0
52998.0,STARLINK-4254,PAYLOAD,2023-12-30 15:13:33,15.08852421,0.0001384,53.2173,85.6205,93.1315,266.9835,0.00011138,1.486e-05,0.0,0 STARLINK-4254,1 52998U 22076N   23364.63442030  .00001486  00000-0  11138-3 0  9996,2 52998  53.2173  85.6205 0001384  93.1315 266.9835 15.08852421 82533,6917.842,95.437,540.665,538.75,0.0
52998.0,STARLINK-4254,PAYLOAD,2023-12-31 11:53:35,15.08836853,0.0001456,53.2171,81.7569,78.4241,281.6914,6.2964e-05,7.14e-06,0.0,0 STARLINK-4254,1 52998U 22076N   23365.49555383  .00000714  00000-0  62964-4 0  9994,2 52998  53.2171  81.7569 0001456  78.4241 281.6914 15.08836853 82662,6917.89,95.438,540.762,538.748,0.0
52998.0,STARLINK-4254,PAYLOAD,2024-01-01 11:44:22,15.08849156,0.0001447,53.2177,77.2944,95.2557,264.8601,1.0557e-05,-1.2e-06,0.0,0 STARLINK-4254,1 52998U 22076N   24001.48914684 -.00000120  00000-0  10557-4 0  9997,2 52998  53.2177  77.2944 0001447  95.2557 264.8601 15.08849156 82815,6917.852,95.437,540.718,538.716,0.0
52998.0,STARLINK-4254,PAYLOAD,2024-01-02 05:13:37,15.08834786,0.0001599,53.2183,74.0267,96.3812,263.7363,9.1536e-05,1.169e-05,0.0,0 STARLINK-4254,1 52998U 22076N   24002.21779539  .00001169  00000-0  91536-4 0  9996,2 52998  53.2183  74.0267 0001599  96.3812 263.7363 15.08834786 82927,6917.896,95.438,540.867,538.655,0.0
52998.0,STARLINK-4254,PAYLOAD,2024-01-02 09:59:46,15.08835984,0.0001605,53.2186,73.1349,98.0665,262.0509,9.4873e-05,1.222e-05,0.0,0 STARLINK-4254,1 52998U 22076N   24002.41651503  .00001222  00000-0  94873-4 0  9995,2 52998  53.2186  73.1349 0001605  98.0665 262.0509 15.08835984 82480,6917.893,95.438,540.868,538.647,0.0
52998.0,STARLINK-4254,PAYLOAD,2024-01-03 11:25:59,15.08810591,0.0001517,53.2183,68.3768,95.6727,264.4438,-0.00018603,-3.245e-05,0.0,0 STARLINK-4254,1 52998U 22076N   24003.47638270 -.00003245  00000-0 -18603-3 0  9993,2 52998  53.2183  68.3768 0001517  95.6727 264.4438 15.08810591 83117,6917.97,95.439,540.885,538.786,0.0
52998.0,STARLINK-4254,PAYLOAD,2024-01-04 11:16:45,15.08828115,0.0001439,53.2184,63.9136,83.0479,277.0677,1.9865e-05,2.8e-07,0.0,0 STARLINK-4254,1 52998U 22076N   24004.46997678  .00000028  00000-0  19865-4 0  9999,2 52998  53.2184  63.9136 0001439  83.0479 277.0677 15.08828115 83268,6917.917,95.438,540.777,538.786,0.0
52998.0,STARLINK-4254,PAYLOAD,2024-01-04 12:52:08,15.08830348,0.0001439,53.218,63.62,121.6564,238.4569,3.2569e-05,2.3e-06,0.0,0 STARLINK-4254,1 52998U 22076N   24004.53621329  .00000230  00000-0  32569-4 0  9995,2 52998  53.2180  63.6200 0001439 121.6564 238.4569 15.08830348 82808,6917.91,95.438,540.77,538.779,0.0
52998.0,STARLINK-4254,PAYLOAD,2024-01-05 12:42:55,15.08853673,0.0001583,53.2176,59.1571,85.5022,274.6151,0.00055539,8.565e-05,0.0,0 STARLINK-4254,1 52998U 22076N   24005.52980461  .00008565  00000-0  55539-3 0  9990,2 52998  53.2176  59.1571 0001583  85.5022 274.6151 15.08853673 83425,6917.839,95.437,540.799,538.609,0.0
52998.0,STARLINK-4254,PAYLOAD,2024-01-06 03:01:23,15.0885138,0.0001502,53.2168,56.4818,84.7333,275.3831,9.6916e-05,1.255e-05,0.0,0 STARLINK-4254,1 52998U 22076N   24006.12596485  .00001255  00000-0  96916-4 0  9990,2 52998  53.2168  56.4818 0001502  84.7333 275.3831 15.08851380 83513,6917.846,95.437,540.75,538.672,0.0
52998.0,STARLINK-4254,PAYLOAD,2024-01-06 09:22:55,15.08850389,0.0001728,53.2167,55.2894,109.8815,250.2364,1.6907e-05,-1.9e-07,0.0,0 STARLINK-4254,1 52998U 22076N   24006.39092093 -.00000019  00000-0  16907-4 0  9995,2 52998  53.2167  55.2894 0001728 109.8815 250.2364 15.08850389 83080,6917.849,95.437,540.909,538.518,0.0
52998.0,STARLINK-4254,PAYLOAD,2024-01-07 09:13:42,15.08852899,0.0001591,53.2166,50.8312,87.4545,272.663,-5.5765e-07,-2.97e-06,0.0,0 STARLINK-4254,1 52998U 22076N   24007.38451714 -.00000297  00000-0 -55765-6 0  9990,2 52998  53.2166  50.8312 0001591  87.4545 272.6630 15.08852899 83705,6917.841,95.437,540.807,538.605,0.0
52998.0,STARLINK-4254,PAYLOAD,2024-01-07 23:32:10,15.0884088,0.0001651,53.216,48.1549,84.2888,275.8292,2.663e-05,1.36e-06,0.0,0 STARLINK-4254,1 52998U 22076N   24007.98068199  .00000136  00000-0  26630-4 0  9994,2 52998  53.2160  48.1549 0001651  84.2888 275.8292 15.08840880 83798,6917.878,95.437,540.885,538.601,0.0
52998.0,STARLINK-4254,PAYLOAD,2024-01-08 12:15:15,15.0884495,0.0001626,53.2171,45.7745,100.9408,259.1767,7.3685e-05,8.85e-06,0.0,0 STARLINK-4254,1 52998U 22076N   24008.51059785  .00000885  00000-0  73685-4 0  9998,2 52998  53.2171  45.7745 0001626 100.9408 259.1767 15.08844950 83409,6917.865,95.437,540.855,538.605,0.0
